{
  "type": "FeatureCollection",
  "features": [
    {
      "type": "Feature",
      "properties": {
        "norad_id": 67084,
        "name": "STARLINK-36166",
        "group": "last-30-days",
        "lat": 46.094817333731925,
        "lon": 5.577834203181008,
        "alt_km": 350.47949990823145,
        "timestamp": "2025-12-27T13:34:48.010258+00:00",
        "meta_object_name": "STARLINK-36166",
        "meta_object_id": "2025-298K",
        "meta_epoch": "2025-12-27T06:00:02.000160",
        "meta_mean_motion": 15.73218728,
        "meta_eccentricity": 0.00033411,
        "meta_inclination": 69.9991,
        "meta_ra_of_asc_node": 208.7063,
        "meta_arg_of_pericenter": 277.2756,
        "meta_mean_anomaly": 225.2414,
        "meta_ephemeris_type": 0,
        "meta_classification_type": "U",
        "meta_norad_cat_id": 67084,
        "meta_element_set_no": 999,
        "meta_rev_at_epoch": 325,
        "meta_bstar": -0.01458928,
        "meta_mean_motion_dot": -0.01771607,
        "meta_mean_motion_ddot": 0,
        "tle_line1": "1 67084U 25298K   25361.25002315 -.01771607  00000+0 -14589-1 0  9994",
        "tle_line2": "2 67084  69.9991 208.7063 0003341 277.2756 225.2414 15.73218728  3257"
      },
      "geometry": {
        "type": "Point",
        "coordinates": [
          5.577834203181008,
          46.094817333731925
        ]
      }
    },
    {
      "type": "Feature",
      "properties": {
        "norad_id": 67085,
        "name": "STARLINK-35794",
        "group": "last-30-days",
        "lat": 44.38403601167964,
        "lon": 6.927029645615964,
        "alt_km": 350.6847854711432,
        "timestamp": "2025-12-27T13:34:48.010270+00:00",
        "meta_object_name": "STARLINK-35794",
        "meta_object_id": "2025-298L",
        "meta_epoch": "2025-12-27T06:00:02.000160",
        "meta_mean_motion": 15.73217965,
        "meta_eccentricity": 0.00033679,
        "meta_inclination": 69.9994,
        "meta_ra_of_asc_node": 208.7033,
        "meta_arg_of_pericenter": 275.9856,
        "meta_mean_anomaly": 228.4899,
        "meta_ephemeris_type": 0,
        "meta_classification_type": "U",
        "meta_norad_cat_id": 67085,
        "meta_element_set_no": 999,
        "meta_rev_at_epoch": 331,
        "meta_bstar": -0.014608083,
        "meta_mean_motion_dot": -0.01773586,
        "meta_mean_motion_ddot": 0,
        "tle_line1": "1 67085U 25298L   25361.25002315 -.01773586  00000+0 -14608-1 0  9995",
        "tle_line2": "2 67085  69.9994 208.7033 0003367 275.9856 228.4899 15.73217965  3313"
      },
      "geometry": {
        "type": "Point",
        "coordinates": [
          6.927029645615964,
          44.38403601167964
        ]
      }
    },
    {
      "type": "Feature",
      "properties": {
        "norad_id": 67086,
        "name": "STARLINK-35841",
        "group": "last-30-days",
        "lat": 42.52836367165016,
        "lon": 8.291741628619345,
        "alt_km": 350.8881390884808,
        "timestamp": "2025-12-27T13:34:48.010282+00:00",
        "meta_object_name": "STARLINK-35841",
        "meta_object_id": "2025-298M",
        "meta_epoch": "2025-12-27T06:00:02.000160",
        "meta_mean_motion": 15.73206766,
        "meta_eccentricity": 0.00032694,
        "meta_inclination": 69.9993,
        "meta_ra_of_asc_node": 208.7008,
        "meta_arg_of_pericenter": 275.9232,
        "meta_mean_anomaly": 230.6649,
        "meta_ephemeris_type": 0,
        "meta_classification_type": "U",
        "meta_norad_cat_id": 67086,
        "meta_element_set_no": 999,
        "meta_rev_at_epoch": 331,
        "meta_bstar": -0.014581482,
        "meta_mean_motion_dot": -0.01769905,
        "meta_mean_motion_ddot": 0,
        "tle_line1": "1 67086U 25298M   25361.25002315 -.01769905  00000+0 -14581-1 0  9996",
        "tle_line2": "2 67086  69.9993 208.7008 0003269 275.9232 230.6649 15.73206766  3319"
      },
      "geometry": {
        "type": "Point",
        "coordinates": [
          8.291741628619345,
          42.52836367165016
        ]
      }
    },
    {
      "type": "Feature",
      "properties": {
        "norad_id": 67087,
        "name": "STARLINK-35842",
        "group": "last-30-days",
        "lat": 66.04080497124941,
        "lon": -27.206859959331055,
        "alt_km": 363.54661542336544,
        "timestamp": "2025-12-27T13:34:48.010292+00:00",
        "meta_object_name": "STARLINK-35842",
        "meta_object_id": "2025-298N",
        "meta_epoch": "2025-12-27T06:00:02.000160",
        "meta_mean_motion": 15.6842324,
        "meta_eccentricity": 0.00033396,
        "meta_inclination": 69.9994,
        "meta_ra_of_asc_node": 208.7303,
        "meta_arg_of_pericenter": 274.343,
        "meta_mean_anomaly": 207.4801,
        "meta_ephemeris_type": 0,
        "meta_classification_type": "U",
        "meta_norad_cat_id": 67087,
        "meta_element_set_no": 999,
        "meta_rev_at_epoch": 331,
        "meta_bstar": -0.025705249,
        "meta_mean_motion_dot": -0.02536829,
        "meta_mean_motion_ddot": 0,
        "tle_line1": "1 67087U 25298N   25361.25002315 -.02536829  00000+0 -25705-1 0  9995",
        "tle_line2": "2 67087  69.9994 208.7303 0003339 274.3430 207.4801 15.68423240  3314"
      },
      "geometry": {
        "type": "Point",
        "coordinates": [
          -27.206859959331055,
          66.04080497124941
        ]
      }
    },
    {
      "type": "Feature",
      "properties": {
        "norad_id": 67088,
        "name": "STARLINK-35882",
        "group": "last-30-days",
        "lat": 39.040215606218474,
        "lon": 10.624829776097021,
        "alt_km": 351.3922392375598,
        "timestamp": "2025-12-27T13:34:48.010302+00:00",
        "meta_object_name": "STARLINK-35882",
        "meta_object_id": "2025-298P",
        "meta_epoch": "2025-12-27T06:00:02.000160",
        "meta_mean_motion": 15.73203657,
        "meta_eccentricity": 0.00034116,
        "meta_inclination": 69.9994,
        "meta_ra_of_asc_node": 208.6964,
        "meta_arg_of_pericenter": 274.7097,
        "meta_mean_anomaly": 235.7923,
        "meta_ephemeris_type": 0,
        "meta_classification_type": "U",
        "meta_norad_cat_id": 67088,
        "meta_element_set_no": 999,
        "meta_rev_at_epoch": 331,
        "meta_bstar": -0.014612015,
        "meta_mean_motion_dot": -0.01773087,
        "meta_mean_motion_ddot": 0,
        "tle_line1": "1 67088U 25298P   25361.25002315 -.01773087  00000+0 -14612-1 0  9999",
        "tle_line2": "2 67088  69.9994 208.6964 0003411 274.7097 235.7923 15.73203657  3314"
      },
      "geometry": {
        "type": "Point",
        "coordinates": [
          10.624829776097021,
          39.040215606218474
        ]
      }
    },
    {
      "type": "Feature",
      "properties": {
        "norad_id": 67089,
        "name": "STARLINK-35763",
        "group": "last-30-days",
        "lat": 37.1586855278833,
        "lon": 11.776202669437904,
        "alt_km": 351.5873231764208,
        "timestamp": "2025-12-27T13:34:48.010312+00:00",
        "meta_object_name": "STARLINK-35763",
        "meta_object_id": "2025-298Q",
        "meta_epoch": "2025-12-27T06:00:02.000160",
        "meta_mean_motion": 15.73193409,
        "meta_eccentricity": 0.0003151,
        "meta_inclination": 69.9992,
        "meta_ra_of_asc_node": 208.6928,
        "meta_arg_of_pericenter": 276.6212,
        "meta_mean_anomaly": 235.9766,
        "meta_ephemeris_type": 0,
        "meta_classification_type": "U",
        "meta_norad_cat_id": 67089,
        "meta_element_set_no": 999,
        "meta_rev_at_epoch": 331,
        "meta_bstar": -0.014612617,
        "meta_mean_motion_dot": -0.01772213,
        "meta_mean_motion_ddot": 0,
        "tle_line1": "1 67089U 25298Q   25361.25002315 -.01772213  00000+0 -14613-1 0  9991",
        "tle_line2": "2 67089  69.9992 208.6928 0003151 276.6212 235.9766 15.73193409  3314"
      },
      "geometry": {
        "type": "Point",
        "coordinates": [
          11.776202669437904,
          37.1586855278833
        ]
      }
    },
    {
      "type": "Feature",
      "properties": {
        "norad_id": 67090,
        "name": "STARLINK-36060",
        "group": "last-30-days",
        "lat": 35.46021664206185,
        "lon": 12.7632528149278,
        "alt_km": 351.9058820218688,
        "timestamp": "2025-12-27T13:34:48.010322+00:00",
        "meta_object_name": "STARLINK-36060",
        "meta_object_id": "2025-298R",
        "meta_epoch": "2025-12-27T06:00:02.000160",
        "meta_mean_motion": 15.73196744,
        "meta_eccentricity": 0.0003411,
        "meta_inclination": 69.9991,
        "meta_ra_of_asc_node": 208.6909,
        "meta_arg_of_pericenter": 275.9399,
        "meta_mean_anomaly": 238.5304,
        "meta_ephemeris_type": 0,
        "meta_classification_type": "U",
        "meta_norad_cat_id": 67090,
        "meta_element_set_no": 999,
        "meta_rev_at_epoch": 325,
        "meta_bstar": -0.014598129,
        "meta_mean_motion_dot": -0.01771144,
        "meta_mean_motion_ddot": 0,
        "tle_line1": "1 67090U 25298R   25361.25002315 -.01771144  00000+0 -14598-1 0  9997",
        "tle_line2": "2 67090  69.9991 208.6909 0003411 275.9399 238.5304 15.73196744  3256"
      },
      "geometry": {
        "type": "Point",
        "coordinates": [
          12.7632528149278,
          35.46021664206185
        ]
      }
    }
  ]
}